{
 "generated_at": "2026-06-22T10:39:18Z",
 "sources": [
  {
   "name": "CelesTrak",
   "url": "https://celestrak.org/NORAD/elements/",
   "license": "frei verfügbar; Attribution. Ursprünglich USSPACECOM/Space-Track."
  },
  {
   "name": "GCAT (J. McDowell, planet4589.org)",
   "url": "https://planet4589.org/space/gcat/",
   "license": "CC-BY 4.0"
  }
 ],
 "satellites": [
  {
   "norad": 40267,
   "name": "HIMAWARI-8",
   "intl": "2014-060A",
   "group": "weather",
   "gcat": {
    "class": "C",
    "category": "MET",
    "owner": "JMA",
    "state": "J"
   },
   "omm": {
    "OBJECT_NAME": "HIMAWARI-8",
    "OBJECT_ID": "2014-060A",
    "EPOCH": "2026-06-20T11:03:40.391424",
    "MEAN_MOTION": 1.00270806,
    "ECCENTRICITY": 0.0001168,
    "INCLINATION": 0.0187,
    "RA_OF_ASC_NODE": 51.4118,
    "ARG_OF_PERICENTER": 42.2924,
    "MEAN_ANOMALY": 121.5465,
    "EPHEMERIS_TYPE": 0,
    "CLASSIFICATION_TYPE": "U",
    "NORAD_CAT_ID": 40267,
    "ELEMENT_SET_NO": 999,
    "REV_AT_EPOCH": 4279,
    "BSTAR": 0,
    "MEAN_MOTION_DOT": -0.0000028,
    "MEAN_MOTION_DDOT": 0
   }
  },
  {
   "norad": 41836,
   "name": "HIMAWARI-9",
   "intl": "2016-064A",
   "group": "weather",
   "gcat": {
    "class": "C",
    "category": "MET",
    "owner": "JMA",
    "state": "J"
   },
   "omm": {
    "OBJECT_NAME": "HIMAWARI-9",
    "OBJECT_ID": "2016-064A",
    "EPOCH": "2026-06-20T11:03:40.387968",
    "MEAN_MOTION": 1.00270283,
    "ECCENTRICITY": 0.0000932,
    "INCLINATION": 0.014,
    "RA_OF_ASC_NODE": 351.6731,
    "ARG_OF_PERICENTER": 111.3358,
    "MEAN_ANOMALY": 112.3453,
    "EPHEMERIS_TYPE": 0,
    "CLASSIFICATION_TYPE": "U",
    "NORAD_CAT_ID": 41836,
    "ELEMENT_SET_NO": 999,
    "REV_AT_EPOCH": 3524,
    "BSTAR": 0,
    "MEAN_MOTION_DOT": 0,
    "MEAN_MOTION_DDOT": 0
   }
  },
  {
   "norad": 40015,
   "name": "HODOYOSHI-3",
   "intl": "2014-033F",
   "group": "resource",
   "gcat": {
    "class": null,
    "category": null,
    "owner": null,
    "state": null
   },
   "omm": {
    "OBJECT_NAME": "HODOYOSHI-3",
    "OBJECT_ID": "2014-033F",
    "EPOCH": "2026-06-20T10:02:35.522016",
    "MEAN_MOTION": 14.85393755,
    "ECCENTRICITY": 0.0032388,
    "INCLINATION": 97.6421,
    "RA_OF_ASC_NODE": 334.3289,
    "ARG_OF_PERICENTER": 346.5693,
    "MEAN_ANOMALY": 13.4657,
    "EPHEMERIS_TYPE": 0,
    "CLASSIFICATION_TYPE": "U",
    "NORAD_CAT_ID": 40015,
    "ELEMENT_SET_NO": 999,
    "REV_AT_EPOCH": 64810,
    "BSTAR": 0.000093914,
    "MEAN_MOTION_DOT": 0.00000763,
    "MEAN_MOTION_DDOT": 0
   }
  },
  {
   "norad": 40011,
   "name": "HODOYOSHI-4",
   "intl": "2014-033B",
   "group": "resource",
   "gcat": {
    "class": null,
    "category": null,
    "owner": null,
    "state": null
   },
   "omm": {
    "OBJECT_NAME": "HODOYOSHI-4",
    "OBJECT_ID": "2014-033B",
    "EPOCH": "2026-06-21T12:56:22.045920",
    "MEAN_MOTION": 14.88136903,
    "ECCENTRICITY": 0.0022176,
    "INCLINATION": 97.5457,
    "RA_OF_ASC_NODE": 357.1508,
    "ARG_OF_PERICENTER": 293.0169,
    "MEAN_ANOMALY": 66.8709,
    "EPHEMERIS_TYPE": 0,
    "CLASSIFICATION_TYPE": "U",
    "NORAD_CAT_ID": 40011,
    "ELEMENT_SET_NO": 999,
    "REV_AT_EPOCH": 64945,
    "BSTAR": 0.00015121,
    "MEAN_MOTION_DOT": 0.00001346,
    "MEAN_MOTION_DDOT": 0
   }
  },
  {
   "norad": 33320,
   "name": "HUANJING 1A (HJ-1A)",
   "intl": "2008-041A",
   "group": "resource",
   "gcat": {
    "class": null,
    "category": null,
    "owner": null,
    "state": null
   },
   "omm": {
    "OBJECT_NAME": "HUANJING 1A (HJ-1A)",
    "OBJECT_ID": "2008-041A",
    "EPOCH": "2026-06-21T13:10:42.864672",
    "MEAN_MOTION": 14.83994384,
    "ECCENTRICITY": 0.0020258,
    "INCLINATION": 97.6688,
    "RA_OF_ASC_NODE": 158.2194,
    "ARG_OF_PERICENTER": 121.0821,
    "MEAN_ANOMALY": 239.2385,
    "EPHEMERIS_TYPE": 0,
    "CLASSIFICATION_TYPE": "U",
    "NORAD_CAT_ID": 33320,
    "ELEMENT_SET_NO": 999,
    "REV_AT_EPOCH": 95905,
    "BSTAR": 0.000092209,
    "MEAN_MOTION_DOT": 0.00000719,
    "MEAN_MOTION_DDOT": 0
   }
  },
  {
   "norad": 33321,
   "name": "HUANJING 1B (HJ-1B)",
   "intl": "2008-041B",
   "group": "resource",
   "gcat": {
    "class": null,
    "category": null,
    "owner": null,
    "state": null
   },
   "omm": {
    "OBJECT_NAME": "HUANJING 1B (HJ-1B)",
    "OBJECT_ID": "2008-041B",
    "EPOCH": "2026-06-21T12:29:02.281056",
    "MEAN_MOTION": 14.83321897,
    "ECCENTRICITY": 0.0036434,
    "INCLINATION": 97.6522,
    "RA_OF_ASC_NODE": 161.3498,
    "ARG_OF_PERICENTER": 166.761,
    "MEAN_ANOMALY": 193.457,
    "EPHEMERIS_TYPE": 0,
    "CLASSIFICATION_TYPE": "U",
    "NORAD_CAT_ID": 33321,
    "ELEMENT_SET_NO": 999,
    "REV_AT_EPOCH": 95905,
    "BSTAR": 0.000089798,
    "MEAN_MOTION_DOT": 0.00000692,
    "MEAN_MOTION_DDOT": 0
   }
  },
  {
   "norad": 43719,
   "name": "HYSIS",
   "intl": "2018-096A",
   "group": "resource",
   "gcat": {
    "class": "C",
    "category": "IMG",
    "owner": "ISRO",
    "state": "IN"
   },
   "omm": {
    "OBJECT_NAME": "HYSIS",
    "OBJECT_ID": "2018-096A",
    "EPOCH": "2026-06-21T13:01:06.060000",
    "MEAN_MOTION": 14.78623542,
    "ECCENTRICITY": 0.0001791,
    "INCLINATION": 97.9834,
    "RA_OF_ASC_NODE": 239.2567,
    "ARG_OF_PERICENTER": 96.3154,
    "MEAN_ANOMALY": 263.8261,
    "EPHEMERIS_TYPE": 0,
    "CLASSIFICATION_TYPE": "U",
    "NORAD_CAT_ID": 43719,
    "ELEMENT_SET_NO": 999,
    "REV_AT_EPOCH": 40806,
    "BSTAR": 0.00010958,
    "MEAN_MOTION_DOT": 0.0000075,
    "MEAN_MOTION_DDOT": 0
   }
  },
  {
   "norad": 43613,
   "name": "ICESAT-2",
   "intl": "2018-070A",
   "group": "resource",
   "gcat": {
    "class": "C",
    "category": "SCI",
    "owner": "GSFC",
    "state": "US"
   },
   "omm": {
    "OBJECT_NAME": "ICESAT-2",
    "OBJECT_ID": "2018-070A",
    "EPOCH": "2026-06-20T10:17:39.964128",
    "MEAN_MOTION": 15.28330924,
    "ECCENTRICITY": 0.000611,
    "INCLINATION": 92.0081,
    "RA_OF_ASC_NODE": 291.8551,
    "ARG_OF_PERICENTER": 100.1552,
    "MEAN_ANOMALY": 260.0387,
    "EPHEMERIS_TYPE": 0,
    "CLASSIFICATION_TYPE": "U",
    "NORAD_CAT_ID": 43613,
    "ELEMENT_SET_NO": 999,
    "REV_AT_EPOCH": 43295,
    "BSTAR": 0.00029199,
    "MEAN_MOTION_DOT": 0.00008058,
    "MEAN_MOTION_DDOT": 0
   }
  },
  {
   "norad": 48918,
   "name": "ICEYE-X11",
   "intl": "2021-059AR",
   "group": "sar",
   "gcat": {
    "class": "B",
    "category": "IMG-R",
    "owner": "ICEYE",
    "state": "FI"
   },
   "omm": {
    "OBJECT_NAME": "ICEYE-X11",
    "OBJECT_ID": "2021-059AR",
    "EPOCH": "2026-06-21T11:52:32.052288",
    "MEAN_MOTION": 16.04707218,
    "ECCENTRICITY": 0.0002338,
    "INCLINATION": 97.6238,
    "RA_OF_ASC_NODE": 12.5684,
    "ARG_OF_PERICENTER": 240.8676,
    "MEAN_ANOMALY": 119.237,
    "EPHEMERIS_TYPE": 0,
    "CLASSIFICATION_TYPE": "U",
    "NORAD_CAT_ID": 48918,
    "ELEMENT_SET_NO": 999,
    "REV_AT_EPOCH": 27868,
    "BSTAR": 0.00054578,
    "MEAN_MOTION_DOT": 0.00363307,
    "MEAN_MOTION_DDOT": 0.000062025
   }
  },
  {
   "norad": 43800,
   "name": "ICEYE-X2",
   "intl": "2018-099AU",
   "group": "sar",
   "gcat": {
    "class": "B",
    "category": "IMG-R",
    "owner": "ICEYE",
    "state": "FI"
   },
   "omm": {
    "OBJECT_NAME": "ICEYE-X2",
    "OBJECT_ID": "2018-099AU",
    "EPOCH": "2026-06-21T11:49:51.938400",
    "MEAN_MOTION": 15.17766719,
    "ECCENTRICITY": 0.0008514,
    "INCLINATION": 97.4353,
    "RA_OF_ASC_NODE": 226.2595,
    "ARG_OF_PERICENTER": 289.8796,
    "MEAN_ANOMALY": 70.152,
    "EPHEMERIS_TYPE": 0,
    "CLASSIFICATION_TYPE": "U",
    "NORAD_CAT_ID": 43800,
    "ELEMENT_SET_NO": 999,
    "REV_AT_EPOCH": 41347,
    "BSTAR": 0.00032996,
    "MEAN_MOTION_DOT": 0.00006604,
    "MEAN_MOTION_DDOT": 0
   }
  }
 ]
}
