HUANJING 1A (HJ-1A)     
1 33320U 08041A   26172.54910723  .00000719  00000+0  92209-4 0  9995
2 33320  97.6688 158.2194 0020258 121.0821 239.2385 14.83994384959052
HUANJING 1B (HJ-1B)     
1 33321U 08041B   26172.52016529  .00000692  00000+0  89798-4 0  9994
2 33321  97.6522 161.3498 0036434 166.7610 193.4570 14.83321897959057
HODOYOSHI-4             
1 40011U 14033B   26172.53914405  .00001346  00000+0  15121-3 0  9992
2 40011  97.5457 357.1508 0022176 293.0169  66.8709 14.88136903649459
HODOYOSHI-3             
1 40015U 14033F   26171.41846669  .00000763  00000+0  93914-4 0  9997
2 40015  97.6421 334.3289 0032388 346.5693  13.4657 14.85393755648108
HIMAWARI-8              
1 40267U 14060A   26171.46088416 -.00000280  00000+0  00000+0 0  9993
2 40267   0.0187  51.4118 0001168  42.2924 121.5465  1.00270806 42796
HIMAWARI-9              
1 41836U 16064A   26171.46088412  .00000000  00000+0  00000+0 0  9997
2 41836   0.0140 351.6731 0000932 111.3358 112.3453  1.00270283 35247
ICESAT-2                
1 43613U 18070A   26171.42893477  .00008058  00000+0  29199-3 0  9997
2 43613  92.0081 291.8551 0006110 100.1552 260.0387 15.28330924432958
HYSIS                   
1 43719U 18096A   26172.54243125  .00000750  00000+0  10958-3 0  9999
2 43719  97.9834 239.2567 0001791  96.3154 263.8261 14.78623542408064
ICEYE-X2                
1 43800U 18099AU  26172.49296225  .00006604  00000+0  32996-3 0  9996
2 43800  97.4353 226.2595 0008514 289.8796  70.1520 15.17766719413470
ICEYE-X11               
1 48918U 21059AR  26172.49481542  .00363307  62025-4  54578-3 0  9995
2 48918  97.6238  12.5684 0002338 240.8676 119.2370 16.04707218278682
